[Satellite]
VERSION=1.1
NAME=IRIDIUM 32 [+]
NICKNAME=IRIDIUM 32 [+]
TLE1=1 24945U 97051B   15055.57963409  .00000235  00000-0  76865-4 0  9991
TLE2=2 24945  86.3933 279.7280 0001929 103.8440 256.2970 14.34219934913503
